AETHER-4                
1 67375U 26004N   26040.93452964  .00003017  00000+0  33479-3 0  9993
2 67375  97.8019  41.6192 0005158 166.3643 193.7714 14.87969255  4377
AETHER-5                
1 67376U 26004P   26040.93749113  .00003517  00000+0  39077-3 0  9994
2 67376  97.8016  41.6141 0005482 172.0506 188.0798 14.87812644  4379
AETHER-6                
1 67377U 26004Q   26040.93419602  .00003224  00000+0  35720-3 0  9998
2 67377  97.8019  41.6191 0005149 165.1222 195.0147 14.87988317  4362
AETHER-7                
1 67378U 26004R   26040.93891431  .00002983  00000+0  33293-3 0  9997
2 67378  97.7989  41.6042 0004805 179.4647 180.6575 14.87742234  4361
AETHER-8                
1 67379U 26004S   26040.93870734  .00003214  00000+0  35822-3 0  9999
2 67379  97.7995  41.6066 0005332 176.9700 183.1549 14.87751684  4361
AETHER-9                
1 67380U 26004T   26040.93686464  .00003010  00000+0  33497-3 0  9996
2 67380  97.7985  41.6067 0004871 175.3962 184.7300 14.87851490  4361
AETHER-10               
1 67381U 26004U   26040.53059614  .00003659  00000+0  40436-3 0  9994
2 67381  97.8021  41.2249 0005291 168.2149 191.9193 14.88012301  4302
AETHER-11               
1 67382U 26004V   26040.93304073  .00002924  00000+0  32417-3 0  9995
2 67382  97.8014  41.6195 0004872 162.7086 197.4297 14.88039374  4363
AETHER-12               
1 67383U 26004W   26040.93840978  .00003298  00000+0  36720-3 0  9991
2 67383  97.7990  41.6059 0005173 177.6887 182.4354 14.87769613  4367
TWILIGHT-1 OBJECT X     
1 67384U 26004X   26040.86289956  .00006525  00000+0  71269-3 0  9990
2 67384  97.7987  41.5504 0004297 164.8999 195.2347 14.88213797  4357
TWILIGHT-1 OBJECT Y     
1 67385U 26004Y   26040.86056215  .00006640  00000+0  72048-3 0  9995
2 67385  97.8000  41.5563 0004375 157.0444 203.0970 14.88475942  4358
TWILIGHT-1 OBJECT Z     
1 67386U 26004Z   26040.92675082  .00003105  00000+0  34105-3 0  9997
2 67386  97.7980  41.6198 0003096 155.7846 204.3517 14.88372385  4369
